        "tle_line2": '2 40878 100.1135  93.1221 0008360   7.9801 352.1445 13.16068069509211',
        "epoch_iso": '2026-04-13T22:37:54.023232Z',
        "inclination_deg": '100.113500',
        "eccentricity": '0.00083600',
        "mean_motion_rev_per_day": '13.16068069',
        "altitude_m": '1199775.853',
    },
    {
        "name": 'GAOFEN-9 01',
        "norad_catalog_id": '40894',
        "tle_line1": '1 40894U 15047A   26103.95612854  .00000611  00000+0  81505-4 0  9994',
        "tle_line2": '2 40894  97.6346 142.5517 0027119 354.1502   5.9392 14.82769263570678',
        "epoch_iso": '2026-04-13T22:56:49.505856Z',
        "inclination_deg": '97.634600',
        "eccentricity": '0.00271190',
        "mean_motion_rev_per_day": '14.82769263',
        "altitude_m": '620596.525',
    },
    {
        "name": 'YAOGAN-28',
        "norad_catalog_id": '41026',
        "tle_line1": '1 41026U 15064A   26103.97210465  .00004505  00000+0  17443-3 0  9990',
        "tle_line2": '2 41026  97.2966 243.6190 0012000  62.8511 297.3950 15.26611081580880',
        "epoch_iso": '2026-04-13T23:19:49.841760Z',
        "inclination_deg": '97.296600',
        "eccentricity": '0.00120000',
        "mean_motion_rev_per_day": '15.26611081',
        "altitude_m": '485951.922',
    },
    {
        "name": 'YAOGAN-29',
        "norad_catalog_id": '41038',
        "tle_line1": '1 41038U 15069A   26103.94700451 -.00000265  00000+0 -25925-4 0  9990',
        "tle_line2": '2 41038  98.0099 132.4633 0000830 160.9565 199.1679 14.83031439561109',
        "epoch_iso": '2026-04-13T22:43:41.189664Z',
        "inclination_deg": '98.009900',
        "eccentricity": '0.00008300',
        "mean_motion_rev_per_day": '14.83031439',
        "altitude_m": '619771.658',
    },
    {
        "name": 'KENT RIDGE 1',
        "norad_catalog_id": '41167',
        "tle_line1": '1 41167U 15077B   26103.97889606  .00003047  00000+0  95181-4 0  9995',
        "tle_line2": '2 41167  14.9807  23.3488 0008346  52.5409 307.5672 15.22743008571290',
        "epoch_iso": '2026-04-13T23:29:36.619584Z',
        "inclination_deg": '14.980700',
        "eccentricity": '0.00083460',
        "mean_motion_rev_per_day": '15.22743008',
        "altitude_m": '497571.116',
    },
    {
        "name": 'GAOFEN-4',
        "norad_catalog_id": '41194',
        "tle_line1": '1 41194U 15083A   26103.96587898 -.00000331  00000+0  00000+0 0  9994',
        "tle_line2": '2 41194   0.3405  82.5044 0002925 127.8137  85.2540  1.00274432 37886',
        "epoch_iso": '2026-04-13T23:10:51.943872Z',
        "inclination_deg": '0.340500',
        "eccentricity": '0.00029250',
        "mean_motion_rev_per_day": '1.00274432',
        "altitude_m": '35785852.927',
    },
    {
        "name": 'JASON-3',
        "norad_catalog_id": '41240',
        "tle_line1": '1 41240U 16002A   26103.92496235 -.00000054  00000+0  32203-4 0  9995',
        "tle_line2": '2 41240  66.0404 260.9390 0007770 275.5123  84.5010 12.87628275478979',
        "epoch_iso": '2026-04-13T22:11:56.747040Z',
        "inclination_deg": '66.040400',
        "eccentricity": '0.00077700',
        "mean_motion_rev_per_day": '12.87628275',
        "altitude_m": '1310951.120',
    },
    {
        "name": 'SENTINEL-3A',
        "norad_catalog_id": '41335',
        "tle_line1": '1 41335U 16011A   26103.90745690  .00000057  00000+0  41752-4 0  9991',
        "tle_line2": '2 41335  98.6285 172.2022 0001022  91.7303 268.3995 14.26735914528896',
        "epoch_iso": '2026-04-13T21:46:44.276160Z',
        "inclination_deg": '98.628500',
        "eccentricity": '0.00010220',
        "mean_motion_rev_per_day": '14.26735914',
        "altitude_m": '802662.142',
    },
    {
        "name": 'ZIYUAN 3-02 (ZY 3-02)',
        "norad_catalog_id": '41556',
        "tle_line1": '1 41556U 16033A   26103.92916150  .00003508  00000+0  15880-3 0  9999',
        "tle_line2": '2 41556  97.3856 180.9285 0014429 156.8761 203.3127 15.21454593548215',
        "epoch_iso": '2026-04-13T22:17:59.553600Z',
        "inclination_deg": '97.385600',
        "eccentricity": '0.00144290',
        "mean_motion_rev_per_day": '15.21454593',
        "altitude_m": '501452.277',
    },
    {
        "name": 'CARTOSAT-2C',
        "norad_catalog_id": '41599',
        "tle_line1": '1 41599U 16040A   26103.90892410  .00001887  00000+0  92644-4 0  9996',
        "tle_line2": '2 41599  97.4545 164.7499 0009098   5.9270 354.2071 15.19282316543959',
        "epoch_iso": '2026-04-13T21:48:51.042240Z',
        "inclination_deg": '97.454500',
        "eccentricity": '0.00090980',
        "mean_motion_rev_per_day": '15.19282316',
        "altitude_m": '508008.362',
    },
    {
        "name": 'SKYSAT-C1',
        "norad_catalog_id": '41601',
        "tle_line1": '1 41601U 16040C   26103.84049896  .00005045  00000+0  14963-3 0  9992',
        "tle_line2": '2 41601  96.9641 139.0769 0000932 206.5360 153.5837 15.35240630547995',
        "epoch_iso": '2026-04-13T20:10:19.110144Z',
        "inclination_deg": '96.964100',
        "eccentricity": '0.00009320',
        "mean_motion_rev_per_day": '15.35240630',
        "altitude_m": '460205.851',
    },
    {
        "name": 'LAPAN-A3',
        "norad_catalog_id": '41603',
        "tle_line1": '1 41603U 16040E   26103.95699538  .00002401  00000+0  78367-4 0  9992',
        "tle_line2": '2 41603  97.1489 102.2368 0008616 240.6554 119.3828 15.32689469544977',
        "epoch_iso": '2026-04-13T22:58:04.400832Z',
        "inclination_deg": '97.148900',
        "eccentricity": '0.00086160',
        "mean_motion_rev_per_day": '15.32689469',
        "altitude_m": '467792.027',
    },
    {
        "name": 'GAOFEN-3',
        "norad_catalog_id": '41727',
        "tle_line1": '1 41727U 16049A   26103.97877453 -.00000081  00000+0 -11297-4 0  9997',
        "tle_line2": '2 41727  98.4045 112.7286 0001423  67.2388 292.8952 14.42224433509396',
        "epoch_iso": '2026-04-13T23:29:26.119392Z',
        "inclination_deg": '98.404500',
        "eccentricity": '0.00014230',
        "mean_motion_rev_per_day": '14.42224433',
        "altitude_m": '751158.382',
    },
    {
        "name": 'SKYSAT-C4',
        "norad_catalog_id": '41771',
        "tle_line1": '1 41771U 16058B   26103.93056202  .00009693  00000+0  19598-3 0  9990',
        "tle_line2": '2 41771  96.9241 128.4675 0003384 112.8018 247.3591 15.46648028535531',
        "epoch_iso": '2026-04-13T22:20:00.558528Z',
        "inclination_deg": '96.924100',
        "eccentricity": '0.00033840',
        "mean_motion_rev_per_day": '15.46648028',
        "altitude_m": '426539.968',
    },
    {
        "name": 'SKYSAT-C5',
        "norad_catalog_id": '41772',
        "tle_line1": '1 41772U 16058C   26103.85106001  .00004527  00000+0  13948-3 0  9999',
        "tle_line2": '2 41772  97.0546 147.3801 0002652 169.8149 190.3149 15.34090094533880',
        "epoch_iso": '2026-04-13T20:25:31.584864Z',
        "inclination_deg": '97.054600',
        "eccentricity": '0.00026520',
        "mean_motion_rev_per_day": '15.34090094',
        "altitude_m": '463624.501',
    },
    {
        "name": 'SKYSAT-C2',
        "norad_catalog_id": '41773',
        "tle_line1": '1 41773U 16058D   26103.79197131  .00006980  00000+0  17316-3 0  9995',
        "tle_line2": '2 41773  97.0234 128.3616 0001135 293.6130  66.4998 15.40656949535138',
        "epoch_iso": '2026-04-13T19:00:26.321184Z',
        "inclination_deg": '97.023400',
        "eccentricity": '0.00011350',
        "mean_motion_rev_per_day": '15.40656949',
        "altitude_m": '444169.236',
    },
    {
        "name": 'SKYSAT-C3',
        "norad_catalog_id": '41774',
        "tle_line1": '1 41774U 16058E   26103.56853478  .00012644  00000+0  22749-3 0  9994',
        "tle_line2": '2 41774  96.9123 136.9879 0002432 108.6352 251.5165 15.49950186536090',
        "epoch_iso": '2026-04-13T13:38:41.404992Z',
        "inclination_deg": '96.912300',
        "eccentricity": '0.00024320',
        "mean_motion_rev_per_day": '15.49950186',
        "altitude_m": '416871.656',
    },
    {
        "name": 'ALSAT-1B',
        "norad_catalog_id": '41785',
        "tle_line1": '1 41785U 16059C   26104.01375747  .00000609  00000+0  10390-3 0  9993',
        "tle_line2": '2 41785  97.7788 115.5437 0010789  74.6899 285.5501 14.72227025511136',
        "epoch_iso": '2026-04-14T00:19:48.645408Z',
        "inclination_deg": '97.778800',
        "eccentricity": '0.00107890',
        "mean_motion_rev_per_day": '14.72227025',
        "altitude_m": '653967.527',
    },
    {
        "name": 'PATHFINDER 1',
        "norad_catalog_id": '41787',
        "tle_line1": '1 41787U 16059E   26103.70787937  .00000469  00000+0  90320-4 0  9994',
        "tle_line2": '2 41787  97.8181 105.8959 0029694  53.7597 306.6346 14.67582568510259',
        "epoch_iso": '2026-04-13T16:59:20.777568Z',
        "inclination_deg": '97.818100',
        "eccentricity": '0.00296940',
        "mean_motion_rev_per_day": '14.67582568',
        "altitude_m": '668796.042',
    },
    {
        "name": 'SCATSAT 1',
        "norad_catalog_id": '41790',
        "tle_line1": '1 41790U 16059H   26103.89412204  .00000851  00000+0  11854-3 0  9999',
        "tle_line2": '2 41790  98.1240 166.9899 0056129  95.3898 265.3720 14.79383765 92087',
        "epoch_iso": '2026-04-13T21:27:32.144256Z',
        "inclination_deg": '98.124000',
        "eccentricity": '0.00561290',
        "mean_motion_rev_per_day": '14.79383765',
        "altitude_m": '631269.964',
    },
    {
        "name": 'GOKTURK 1A',
        "norad_catalog_id": '41875',
        "tle_line1": '1 41875U 16073A   26103.94628787  .00000135  00000+0  35652-4 0  9998',
        "tle_line2": '2 41875  98.1319 359.6040 0001379  82.0928 278.0430 14.62785467499437',
        "epoch_iso": '2026-04-13T22:42:39.271968Z',
        "inclination_deg": '98.131900',
        "eccentricity": '0.00013790',
        "mean_motion_rev_per_day": '14.62785467',
        "altitude_m": '684194.244',
    },
